[{"OBJECT_NAME":"STARLINK-1975","OBJECT_ID":"2021-009AB","EPOCH":"2026-03-09T22:00:01.999584","MEAN_MOTION":15.77661104,"ECCENTRICITY":0.0004759,"INCLINATION":53.0518,"RA_OF_ASC_NODE":307.9346,"ARG_OF_PERICENTER":123.581,"MEAN_ANOMALY":224.1672,"EPHEMERIS_TYPE":0,"CLASSIFICATION_TYPE":"U","NORAD_CAT_ID":47573,"ELEMENT_SET_NO":999,"REV_AT_EPOCH":585,"BSTAR":0.00062457323,"MEAN_MOTION_DOT":0.00107302,"MEAN_MOTION_DDOT":0},{"OBJECT_NAME":"CZ-4B R\/B","OBJECT_ID":"2025-314B","EPOCH":"2026-03-09T17:50:42.473760","MEAN_MOTION":15.91792327,"ECCENTRICITY":0.00849963,"INCLINATION":97.3538,"RA_OF_ASC_NODE":150.3267,"ARG_OF_PERICENTER":114.2763,"MEAN_ANOMALY":246.7419,"EPHEMERIS_TYPE":0,"CLASSIFICATION_TYPE":"U","NORAD_CAT_ID":67301,"ELEMENT_SET_NO":999,"REV_AT_EPOCH":1092,"BSTAR":0.00075319096,"MEAN_MOTION_DOT":0.00343879,"MEAN_MOTION_DDOT":4.660623e-5}]
